{"type": "FeatureCollection", "features": [ {"type": "Feature", "properties": {"norad_id": 54234, "name": "NOAA 21 (JPSS-2)", "group": "weather", "lat": 69.69162913160237, "lon": -110.00275714825817, "alt_km": 818.4571118783679, "timestamp": "2025-12-04T03:47:54.197706+00:00", "meta": {"OBJECT_NAME": "NOAA 21 (JPSS-2)", "OBJECT_ID": "2022-150A", "EPOCH": "2025-12-03T19:00:14.967360", "MEAN_MOTION": 14.19520042, "ECCENTRICITY": 0.0002527, "INCLINATION": 98.7448, "RA_OF_ASC_NODE": 274.2123, "ARG_OF_PERICENTER": 54.6238, "MEAN_ANOMALY": 305.5174, "EPHEMERIS_TYPE": 0, "CLASSIFICATION_TYPE": "U", "NORAD_CAT_ID": 54234, "ELEMENT_SET_NO": 999, "REV_AT_EPOCH": 15882, "BSTAR": 9.4371e-05, "MEAN_MOTION_DOT": 1.55e-06, "MEAN_MOTION_DDOT": 0}, "tle": {"line1": "1 54234U 22150A   25337.79183990  .00000155  00000+0  94371-4 0  9992", "line2": "2 54234  98.7448 274.2123 0002527  54.6238 305.5174 14.19520042158822"}}, "geometry": {"type": "Point", "coordinates": [-110.00275714825817, 69.69162913160237]}}, {"type": "Feature", "properties": {"norad_id": 54743, "name": "METEOSAT-12 (MTG-I1)", "group": "weather", "lat": 0.7129080597560308, "lon": 129.8926180959712, "alt_km": 35788.31139284263, "timestamp": "2025-12-04T03:47:54.197734+00:00", "meta": {"OBJECT_NAME": "METEOSAT-12 (MTG-I1)", "OBJECT_ID": "2022-170C", "EPOCH": "2025-12-03T18:42:38.602944", "MEAN_MOTION": 1.00273728, "ECCENTRICITY": 0.000152, "INCLINATION": 0.7181, "RA_OF_ASC_NODE": 30.0784, "ARG_OF_PERICENTER": 216.336, "MEAN_ANOMALY": 106.8238, "EPHEMERIS_TYPE": 0, "CLASSIFICATION_TYPE": "U", "NORAD_CAT_ID": 54743, "ELEMENT_SET_NO": 999, "REV_AT_EPOCH": 1101, "BSTAR": 0, "MEAN_MOTION_DOT": 1e-07, "MEAN_MOTION_DDOT": 0}, "tle": {"line1": "1 54743U 22170C   25337.77961346  .00000010  00000+0  00000+0 0  9997", "line2": "2 54743   0.7181  30.0784 0001520 216.3360 106.8238  1.00273728 11014"}}, "geometry": {"type": "Point", "coordinates": [129.8926180959712, 0.7129080597560308]}}, {"type": "Feature", "properties": {"norad_id": 55973, "name": "TIANMU-1 03", "group": "weather", "lat": -38.68921774941511, "lon": -45.49242159990965, "alt_km": 453.19865355193906, "timestamp": "2025-12-04T03:47:54.197750+00:00", "meta": {"OBJECT_NAME": "TIANMU-1 03", "OBJECT_ID": "2023-039A", "EPOCH": "2025-12-03T20:36:55.264608", "MEAN_MOTION": 15.40517344, "ECCENTRICITY": 0.0004552, "INCLINATION": 97.5102, "RA_OF_ASC_NODE": 140.265, "ARG_OF_PERICENTER": 86.8573, "MEAN_ANOMALY": 273.3194, "EPHEMERIS_TYPE": 0, "CLASSIFICATION_TYPE": "U", "NORAD_CAT_ID": 55973, "ELEMENT_SET_NO": 999, "REV_AT_EPOCH": 15069, "BSTAR": 0.00060002, "MEAN_MOTION_DOT": 0.00024318, "MEAN_MOTION_DDOT": 0}, "tle": {"line1": "1 55973U 23039A   25337.85897297  .00024318  00000+0  60002-3 0  9999", "line2": "2 55973  97.5102 140.2650 0004552  86.8573 273.3194 15.40517344150690"}}, "geometry": {"type": "Point", "coordinates": [-45.49242159990965, -38.68921774941511]}}, {"type": "Feature", "properties": {"norad_id": 55974, "name": "TIANMU-1 04", "group": "weather", "lat": -37.15463272875776, "lon": 145.4992529809868, "alt_km": 451.7749826137133, "timestamp": "2025-12-04T03:47:54.197762+00:00", "meta": {"OBJECT_NAME": "TIANMU-1 04", "OBJECT_ID": "2023-039B", "EPOCH": "2025-12-03T20:10:04.974240", "MEAN_MOTION": 15.40847299, "ECCENTRICITY": 0.0005226, "INCLINATION": 97.5034, "RA_OF_ASC_NODE": 139.4405, "ARG_OF_PERICENTER": 83.1879, "MEAN_ANOMALY": 276.9961, "EPHEMERIS_TYPE": 0, "CLASSIFICATION_TYPE": "U", "NORAD_CAT_ID": 55974, "ELEMENT_SET_NO": 999, "REV_AT_EPOCH": 15069, "BSTAR": 0.00058808, "MEAN_MOTION_DOT": 0.00024095, "MEAN_MOTION_DDOT": 0}, "tle": {"line1": "1 55974U 23039B   25337.84033535  .00024095  00000+0  58808-3 0  9999", "line2": "2 55974  97.5034 139.4405 0005226  83.1879 276.9961 15.40847299150697"}}, "geometry": {"type": "Point", "coordinates": [145.4992529809868, -37.15463272875776]}}, {"type": "Feature", "properties": {"norad_id": 55975, "name": "TIANMU-1 05", "group": "weather", "lat": 5.883193535329136, "lon": 139.48024057718538, "alt_km": 447.3036389964627, "timestamp": "2025-12-04T03:47:54.197772+00:00", "meta": {"OBJECT_NAME": "TIANMU-1 05", "OBJECT_ID": "2023-039C", "EPOCH": "2025-12-03T19:58:40.331136", "MEAN_MOTION": 15.40474723, "ECCENTRICITY": 0.000433, "INCLINATION": 97.5079, "RA_OF_ASC_NODE": 139.9244, "ARG_OF_PERICENTER": 103.601, "MEAN_ANOMALY": 256.5719, "EPHEMERIS_TYPE": 0, "CLASSIFICATION_TYPE": "U", "NORAD_CAT_ID": 55975, "ELEMENT_SET_NO": 999, "REV_AT_EPOCH": 15067, "BSTAR": 0.00058474, "MEAN_MOTION_DOT": 0.00023661, "MEAN_MOTION_DDOT": 0}, "tle": {"line1": "1 55975U 23039C   25337.83241124  .00023661  00000+0  58474-3 0  9991", "line2": "2 55975  97.5079 139.9244 0004330 103.6010 256.5719 15.40474723150674"}}, "geometry": {"type": "Point", "coordinates": [139.48024057718538, 5.883193535329136]}}, {"type": "Feature", "properties": {"norad_id": 55976, "name": "TIANMU-1 06", "group": "weather", "lat": -50.55875620579008, "lon": 149.94433243527726, "alt_km": 453.1205339484359, "timestamp": "2025-12-04T03:47:54.197783+00:00", "meta": {"OBJECT_NAME": "TIANMU-1 06", "OBJECT_ID": "2023-039D", "EPOCH": "2025-12-03T20:13:39.019872", "MEAN_MOTION": 15.40899889, "ECCENTRICITY": 0.0004675, "INCLINATION": 97.5092, "RA_OF_ASC_NODE": 140.3928, "ARG_OF_PERICENTER": 99.2148, "MEAN_ANOMALY": 260.9627, "EPHEMERIS_TYPE": 0, "CLASSIFICATION_TYPE": "U", "NORAD_CAT_ID": 55976, "ELEMENT_SET_NO": 999, "REV_AT_EPOCH": 15069, "BSTAR": 0.00057665, "MEAN_MOTION_DOT": 0.00023663, "MEAN_MOTION_DDOT": 0}, "tle": {"line1": "1 55976U 23039D   25337.84281273  .00023663  00000+0  57665-3 0  9995", "line2": "2 55976  97.5092 140.3928 0004675  99.2148 260.9627 15.40899889150692"}}, "geometry": {"type": "Point", "coordinates": [149.94433243527726, -50.55875620579008]}}, {"type": "Feature", "properties": {"norad_id": 56232, "name": "FENGYUN 3G", "group": "weather", "lat": -38.696292673791945, "lon": -130.5687357405406, "alt_km": 418.33555371138755, "timestamp": "2025-12-04T03:47:54.197792+00:00", "meta": {"OBJECT_NAME": "FENGYUN 3G", "OBJECT_ID": "2023-055A", "EPOCH": "2025-12-03T20:18:42.161184", "MEAN_MOTION": 15.52818223, "ECCENTRICITY": 0.0009235, "INCLINATION": 49.9946, "RA_OF_ASC_NODE": 273.3209, "ARG_OF_PERICENTER": 105.7273, "MEAN_ANOMALY": 254.4713, "EPHEMERIS_TYPE": 0, "CLASSIFICATION_TYPE": "U", "NORAD_CAT_ID": 56232, "ELEMENT_SET_NO": 999, "REV_AT_EPOCH": 14964, "BSTAR": 0.00070797, "MEAN_MOTION_DOT": 0.00044606, "MEAN_MOTION_DDOT": 0}, "tle": {"line1": "1 56232U 23055A   25337.84632131  .00044606  00000+0  70797-3 0  9993", "line2": "2 56232  49.9946 273.3209 0009235 105.7273 254.4713 15.52818223149648"}}, "geometry": {"type": "Point", "coordinates": [-130.5687357405406, -38.696292673791945]}}, {"type": "Feature", "properties": {"norad_id": 57166, "name": "METEOR-M2 3", "group": "weather", "lat": -19.24553042752974, "lon": -151.19553313166327, "alt_km": 819.910835822453, "timestamp": "2025-12-04T03:47:54.197805+00:00", "meta": {"OBJECT_NAME": "METEOR-M2 3", "OBJECT_ID": "2023-091A", "EPOCH": "2025-12-03T20:07:11.955648", "MEAN_MOTION": 14.24024333, "ECCENTRICITY": 0.0004385, "INCLINATION": 98.6391, "RA_OF_ASC_NODE": 31.5327, "ARG_OF_PERICENTER": 32.6913, "MEAN_ANOMALY": 327.4537, "EPHEMERIS_TYPE": 0, "CLASSIFICATION_TYPE": "U", "NORAD_CAT_ID": 57166, "ELEMENT_SET_NO": 999, "REV_AT_EPOCH": 12671, "BSTAR": 4.2738e-05, "MEAN_MOTION_DOT": 5.5e-07, "MEAN_MOTION_DDOT": 0}, "tle": {"line1": "1 57166U 23091A   25337.83833282  .00000055  00000+0  42738-4 0  9994", "line2": "2 57166  98.6391  31.5327 0004385  32.6913 327.4537 14.24024333126712"}}, "geometry": {"type": "Point", "coordinates": [-151.19553313166327, -19.24553042752974]}}, {"type": "Feature", "properties": {"norad_id": 57399, "name": "TIANMU-1 07", "group": "weather", "lat": 59.59115163718364, "lon": 15.60131090472522, "alt_km": 473.6107762320589, "timestamp": "2025-12-04T03:47:54.197816+00:00", "meta": {"OBJECT_NAME": "TIANMU-1 07", "OBJECT_ID": "2023-101A", "EPOCH": "2025-12-03T19:40:33.287808", "MEAN_MOTION": 15.27864302, "ECCENTRICITY": 0.0005596, "INCLINATION": 97.2894, "RA_OF_ASC_NODE": 27.8679, "ARG_OF_PERICENTER": 104.1759, "MEAN_ANOMALY": 256.0103, "EPHEMERIS_TYPE": 0, "CLASSIFICATION_TYPE": "U", "NORAD_CAT_ID": 57399, "ELEMENT_SET_NO": 999, "REV_AT_EPOCH": 13179, "BSTAR": 0.00044905, "MEAN_MOTION_DOT": 0.00012156, "MEAN_MOTION_DDOT": 0}, "tle": {"line1": "1 57399U 23101A   25337.81982972  .00012156  00000+0  44905-3 0  9995", "line2": "2 57399  97.2894  27.8679 0005596 104.1759 256.0103 15.27864302131791"}}, "geometry": {"type": "Point", "coordinates": [15.60131090472522, 59.59115163718364]}}, {"type": "Feature", "properties": {"norad_id": 57400, "name": "TIANMU-1 08", "group": "weather", "lat": -61.95442870792892, "lon": -165.90236290664978, "alt_km": 493.07277873567, "timestamp": "2025-12-04T03:47:54.197826+00:00", "meta": {"OBJECT_NAME": "TIANMU-1 08", "OBJECT_ID": "2023-101B", "EPOCH": "2025-12-03T20:27:07.627104", "MEAN_MOTION": 15.27849669, "ECCENTRICITY": 0.000748, "INCLINATION": 97.2882, "RA_OF_ASC_NODE": 27.6991, "ARG_OF_PERICENTER": 108.692, "MEAN_ANOMALY": 251.5132, "EPHEMERIS_TYPE": 0, "CLASSIFICATION_TYPE": "U", "NORAD_CAT_ID": 57400, "ELEMENT_SET_NO": 999, "REV_AT_EPOCH": 13179, "BSTAR": 0.00042366, "MEAN_MOTION_DOT": 0.00011462, "MEAN_MOTION_DDOT": 0}, "tle": {"line1": "1 57400U 23101B   25337.85217161  .00011462  00000+0  42366-3 0  9991", "line2": "2 57400  97.2882  27.6991 0007480 108.6920 251.5132 15.27849669131790"}}, "geometry": {"type": "Point", "coordinates": [-165.90236290664978, -61.95442870792892]}}]}